ICEYE-X40               
1 60549U 24149CK  26190.14552809  .00001458  00000+0  12824-3 0  9993
2 60549  97.6804 266.2867 0004566  18.7432 341.3957 14.98041319103368
ICEYE-X49               
1 62384U 24247H   26190.61248843  .00002653  00000+0  15940-3 0  9993
2 62384  44.9971 237.6181 0001232 237.2693 122.8066 15.13595250 85573
ICEYE-X47               
1 62389U 24247N   26189.59793581  .00001864  00000+0  11661-3 0  9996
2 62389  44.9953 242.6285 0002067 318.2676  41.8043 15.13467379 85426
ICEYE-X42               
1 62698U 25009CT  26189.80429821  .00000997  00000+0  10428-3 0  9999
2 62698  97.7322 267.7391 0001551 166.0802 194.0460 14.91838135 80514
ICEYE-X41               
1 62700U 25009CV  26190.19746482  .00001451  00000+0  13147-3 0  9999
2 62700  97.7065 269.4047 0000804   6.0039 354.1192 14.96894877 80706
ICEYE-X45               
1 62705U 25009DA  26190.19755006  .00004401  00000+0  35108-3 0  9995
2 62705  97.8389 277.0630 0001347  83.0695 277.0682 15.00834679 80987
ICEYE-X44               
1 62707U 25009DC  26189.75547583  .00002064  00000+0  18849-3 0  9992
2 62707  97.7046 268.5409 0002514  83.8125 276.3383 14.96140860103162
ICEYE-X48               
1 63253U 25052AV  26189.69816555  .00001783  00000+0  15556-3 0  9997
2 63253  97.6841  81.5559 0003270 119.7800 240.3748 14.98103104 71891
ICEYE-X50               
1 63255U 25052AX  26190.84272020  .00001464  00000+0  13783-3 0  9997
2 63255  97.6866  82.3007 0003272 113.2706 246.8859 14.95352495 72030
ICEYE-X51               
1 63257U 25052AZ  26190.72530675  .00002579  00000+0  20744-3 0  9992
2 63257  97.7602  85.7789 0002020  69.2623 290.8817 15.00882603 72188
ICEYE-X46               
1 63258U 25052BA  26189.63497034  .00001638  00000+0  15363-3 0  9998
2 63258  97.6866  81.1151 0001586  84.7383 275.4019 14.95348711 71850
ICEYE-X54               
1 64570U 25135AU  26190.85373556  .00002079  00000+0  19681-3 0  9993
2 64570  97.7741 305.0591 0001655 201.9895 158.1255 14.94712254 57281
ICEYE-X52               
1 64572U 25135AW  26190.84774740  .00001233  00000+0  12212-3 0  9998
2 64572  97.7765 304.8499 0000808 213.4818 146.6351 14.93639678 57269
ICEYE-X56               
1 64574U 25135AY  26190.84483295  .00001940  00000+0  17929-3 0  9997
2 64574  97.7754 305.6286 0001044 226.1149 133.9986 14.95741647 57314
ICEYE-X57               
1 64578U 25135BC  26190.80103950  .00003017  00000+0  24209-3 0  9990
2 64578  97.8004 307.3361 0002094  61.0093 299.1340 15.00855089 57413
ICEYE-X55               
1 64581U 25135BF  26190.85086450  .00002024  00000+0  18873-3 0  9991
2 64581  97.7753 305.4635 0001837 264.0667  96.0344 14.95340544 57300
