{"fetched_at":"2026-07-10T07:59:05.177Z","source":"https://celestrak.org/NORAD/elements/gp.php?NAME=ICEYE&FORMAT=JSON","constellation":"iceye","records":[{"OBJECT_NAME":"ICEYE-X40","OBJECT_ID":"2024-149CK","EPOCH":"2026-07-09T03:29:33.626976","CLASSIFICATION_TYPE":"U","MEAN_MOTION":14.98041319,"ECCENTRICITY":0.0004566,"INCLINATION":97.6804,"RA_OF_ASC_NODE":266.2867,"ARG_OF_PERICENTER":18.7432,"MEAN_ANOMALY":341.3957,"EPHEMERIS_TYPE":0,"NORAD_CAT_ID":60549,"ELEMENT_SET_NO":999,"REV_AT_EPOCH":10336,"BSTAR":0.00012823983,"MEAN_MOTION_DOT":0.00001458,"MEAN_MOTION_DDOT":0},{"OBJECT_NAME":"ICEYE-X49","OBJECT_ID":"2024-247H","EPOCH":"2026-07-09T14:41:59.000352","CLASSIFICATION_TYPE":"U","MEAN_MOTION":15.1359525,"ECCENTRICITY":0.0001232,"INCLINATION":44.9971,"RA_OF_ASC_NODE":237.6181,"ARG_OF_PERICENTER":237.2693,"MEAN_ANOMALY":122.8066,"EPHEMERIS_TYPE":0,"NORAD_CAT_ID":62384,"ELEMENT_SET_NO":999,"REV_AT_EPOCH":8557,"BSTAR":0.0001594,"MEAN_MOTION_DOT":0.00002653,"MEAN_MOTION_DDOT":0},{"OBJECT_NAME":"ICEYE-X47","OBJECT_ID":"2024-247N","EPOCH":"2026-07-08T14:21:01.653984","CLASSIFICATION_TYPE":"U","MEAN_MOTION":15.13467379,"ECCENTRICITY":0.00020671,"INCLINATION":44.9953,"RA_OF_ASC_NODE":242.6285,"ARG_OF_PERICENTER":318.2676,"MEAN_ANOMALY":41.8043,"EPHEMERIS_TYPE":0,"NORAD_CAT_ID":62389,"ELEMENT_SET_NO":999,"REV_AT_EPOCH":8542,"BSTAR":0.00011661193,"MEAN_MOTION_DOT":0.00001864,"MEAN_MOTION_DDOT":0},{"OBJECT_NAME":"ICEYE-X42","OBJECT_ID":"2025-009CT","EPOCH":"2026-07-08T19:18:11.365344","CLASSIFICATION_TYPE":"U","MEAN_MOTION":14.91838135,"ECCENTRICITY":0.00015512,"INCLINATION":97.7322,"RA_OF_ASC_NODE":267.7391,"ARG_OF_PERICENTER":166.0802,"MEAN_ANOMALY":194.046,"EPHEMERIS_TYPE":0,"NORAD_CAT_ID":62698,"ELEMENT_SET_NO":999,"REV_AT_EPOCH":8051,"BSTAR":0.00010428196,"MEAN_MOTION_DOT":0.00000997,"MEAN_MOTION_DDOT":0},{"OBJECT_NAME":"ICEYE-X41","OBJECT_ID":"2025-009CV","EPOCH":"2026-07-09T04:44:20.960448","CLASSIFICATION_TYPE":"U","MEAN_MOTION":14.96894877,"ECCENTRICITY":0.00008042,"INCLINATION":97.7065,"RA_OF_ASC_NODE":269.4047,"ARG_OF_PERICENTER":6.0039,"MEAN_ANOMALY":354.1192,"EPHEMERIS_TYPE":0,"NORAD_CAT_ID":62700,"ELEMENT_SET_NO":999,"REV_AT_EPOCH":8070,"BSTAR":0.00013147021,"MEAN_MOTION_DOT":0.00001451,"MEAN_MOTION_DDOT":0},{"OBJECT_NAME":"ICEYE-X45","OBJECT_ID":"2025-009DA","EPOCH":"2026-07-09T04:44:28.325184","CLASSIFICATION_TYPE":"U","MEAN_MOTION":15.00834679,"ECCENTRICITY":0.00013474,"INCLINATION":97.8389,"RA_OF_ASC_NODE":277.063,"ARG_OF_PERICENTER":83.0695,"MEAN_ANOMALY":277.0682,"EPHEMERIS_TYPE":0,"NORAD_CAT_ID":62705,"ELEMENT_SET_NO":999,"REV_AT_EPOCH":8098,"BSTAR":0.00035107789,"MEAN_MOTION_DOT":0.00004401,"MEAN_MOTION_DDOT":0},{"OBJECT_NAME":"ICEYE-X44","OBJECT_ID":"2025-009DC","EPOCH":"2026-07-08T18:07:53.111712","CLASSIFICATION_TYPE":"U","MEAN_MOTION":14.9614086,"ECCENTRICITY":0.00025143,"INCLINATION":97.7046,"RA_OF_ASC_NODE":268.5409,"ARG_OF_PERICENTER":83.8125,"MEAN_ANOMALY":276.3383,"EPHEMERIS_TYPE":0,"NORAD_CAT_ID":62707,"ELEMENT_SET_NO":999,"REV_AT_EPOCH":10316,"BSTAR":0.00018848943,"MEAN_MOTION_DOT":0.00002064,"MEAN_MOTION_DDOT":0},{"OBJECT_NAME":"ICEYE-X48","OBJECT_ID":"2025-052AV","EPOCH":"2026-07-08T16:45:21.503520","CLASSIFICATION_TYPE":"U","MEAN_MOTION":14.98103104,"ECCENTRICITY":0.00032705,"INCLINATION":97.6841,"RA_OF_ASC_NODE":81.5559,"ARG_OF_PERICENTER":119.78,"MEAN_ANOMALY":240.3748,"EPHEMERIS_TYPE":0,"NORAD_CAT_ID":63253,"ELEMENT_SET_NO":999,"REV_AT_EPOCH":7189,"BSTAR":0.00015555836,"MEAN_MOTION_DOT":0.00001783,"MEAN_MOTION_DDOT":0},{"OBJECT_NAME":"ICEYE-X50","OBJECT_ID":"2025-052AX","EPOCH":"2026-07-09T20:13:31.025280","CLASSIFICATION_TYPE":"U","MEAN_MOTION":14.95352495,"ECCENTRICITY":0.0003272,"INCLINATION":97.6866,"RA_OF_ASC_NODE":82.3007,"ARG_OF_PERICENTER":113.2706,"MEAN_ANOMALY":246.8859,"EPHEMERIS_TYPE":0,"NORAD_CAT_ID":63255,"ELEMENT_SET_NO":999,"REV_AT_EPOCH":7203,"BSTAR":0.00013783,"MEAN_MOTION_DOT":0.00001464,"MEAN_MOTION_DDOT":0},{"OBJECT_NAME":"ICEYE-X51","OBJECT_ID":"2025-052AZ","EPOCH":"2026-07-09T17:24:26.503200","CLASSIFICATION_TYPE":"U","MEAN_MOTION":15.00882603,"ECCENTRICITY":0.000202,"INCLINATION":97.7602,"RA_OF_ASC_NODE":85.7789,"ARG_OF_PERICENTER":69.2623,"MEAN_ANOMALY":290.8817,"EPHEMERIS_TYPE":0,"NORAD_CAT_ID":63257,"ELEMENT_SET_NO":999,"REV_AT_EPOCH":7218,"BSTAR":0.00020744,"MEAN_MOTION_DOT":0.00002579,"MEAN_MOTION_DDOT":0},{"OBJECT_NAME":"ICEYE-X46","OBJECT_ID":"2025-052BA","EPOCH":"2026-07-08T15:14:21.437376","CLASSIFICATION_TYPE":"U","MEAN_MOTION":14.95348711,"ECCENTRICITY":0.00015869,"INCLINATION":97.6866,"RA_OF_ASC_NODE":81.1151,"ARG_OF_PERICENTER":84.7383,"MEAN_ANOMALY":275.4019,"EPHEMERIS_TYPE":0,"NORAD_CAT_ID":63258,"ELEMENT_SET_NO":999,"REV_AT_EPOCH":7185,"BSTAR":0.00015362614,"MEAN_MOTION_DOT":0.00001638,"MEAN_MOTION_DDOT":0},{"OBJECT_NAME":"ICEYE-X54","OBJECT_ID":"2025-135AU","EPOCH":"2026-07-09T20:29:22.752384","CLASSIFICATION_TYPE":"U","MEAN_MOTION":14.94712254,"ECCENTRICITY":0.0001655,"INCLINATION":97.7741,"RA_OF_ASC_NODE":305.0591,"ARG_OF_PERICENTER":201.9895,"MEAN_ANOMALY":158.1255,"EPHEMERIS_TYPE":0,"NORAD_CAT_ID":64570,"ELEMENT_SET_NO":999,"REV_AT_EPOCH":5728,"BSTAR":0.00019681,"MEAN_MOTION_DOT":0.00002079,"MEAN_MOTION_DDOT":0},{"OBJECT_NAME":"ICEYE-X52","OBJECT_ID":"2025-135AW","EPOCH":"2026-07-09T20:20:45.375360","CLASSIFICATION_TYPE":"U","MEAN_MOTION":14.93639678,"ECCENTRICITY":0.0000808,"INCLINATION":97.7765,"RA_OF_ASC_NODE":304.8499,"ARG_OF_PERICENTER":213.4818,"MEAN_ANOMALY":146.6351,"EPHEMERIS_TYPE":0,"NORAD_CAT_ID":64572,"ELEMENT_SET_NO":999,"REV_AT_EPOCH":5726,"BSTAR":0.00012212,"MEAN_MOTION_DOT":0.00001233,"MEAN_MOTION_DDOT":0},{"OBJECT_NAME":"ICEYE-X56","OBJECT_ID":"2025-135AY","EPOCH":"2026-07-09T20:16:33.566880","CLASSIFICATION_TYPE":"U","MEAN_MOTION":14.95741647,"ECCENTRICITY":0.0001044,"INCLINATION":97.7754,"RA_OF_ASC_NODE":305.6286,"ARG_OF_PERICENTER":226.1149,"MEAN_ANOMALY":133.9986,"EPHEMERIS_TYPE":0,"NORAD_CAT_ID":64574,"ELEMENT_SET_NO":999,"REV_AT_EPOCH":5731,"BSTAR":0.00017929,"MEAN_MOTION_DOT":0.0000194,"MEAN_MOTION_DDOT":0},{"OBJECT_NAME":"ICEYE-X57","OBJECT_ID":"2025-135BC","EPOCH":"2026-07-09T19:13:29.812800","CLASSIFICATION_TYPE":"U","MEAN_MOTION":15.00855089,"ECCENTRICITY":0.0002094,"INCLINATION":97.8004,"RA_OF_ASC_NODE":307.3361,"ARG_OF_PERICENTER":61.0093,"MEAN_ANOMALY":299.134,"EPHEMERIS_TYPE":0,"NORAD_CAT_ID":64578,"ELEMENT_SET_NO":999,"REV_AT_EPOCH":5741,"BSTAR":0.00024209,"MEAN_MOTION_DOT":0.00003017,"MEAN_MOTION_DDOT":0},{"OBJECT_NAME":"ICEYE-X55","OBJECT_ID":"2025-135BF","EPOCH":"2026-07-09T20:25:14.692800","CLASSIFICATION_TYPE":"U","MEAN_MOTION":14.95340544,"ECCENTRICITY":0.0001837,"INCLINATION":97.7753,"RA_OF_ASC_NODE":305.4635,"ARG_OF_PERICENTER":264.0667,"MEAN_ANOMALY":96.0344,"EPHEMERIS_TYPE":0,"NORAD_CAT_ID":64581,"ELEMENT_SET_NO":999,"REV_AT_EPOCH":5730,"BSTAR":0.00018873,"MEAN_MOTION_DOT":0.00002024,"MEAN_MOTION_DDOT":0}]}
